STARLINK-4609           
1 53619U 22104AH  22250.91667824 -.01193968  00000+0 -89056-2 0  9995
2 53619  53.2173 234.5922 0001426  38.5714 353.9595 15.74906699  1304
STARLINK-4615           
1 53620U 22104AJ  22250.91667824 -.01192468  00000+0 -88620-2 0  9997
2 53620  53.2173 234.5871 0001170  46.8851 348.4282 15.74988707  1301
STARLINK-4608           
1 53621U 22104AK  22250.91667824 -.01200974  00000+0 -89398-2 0  9993
2 53621  53.2173 234.5900 0003692 331.3792  62.2706 15.74941321  1305
STARLINK-4568           
1 53622U 22104AL  22250.91667824 -.01192542  00000+0 -88477-2 0  9992
2 53622  53.2173 234.5848 0001414  37.0044 359.4126 15.75024409  1304
STARLINK-4573           
1 53623U 22104AM  22250.91667824 -.01194472  00000+0 -88826-2 0  9995
2 53623  53.2173 234.5877 0001723 350.1387  44.6196 15.74973028  1308
STARLINK-4596           
1 53624U 22104AN  22250.91667824 -.01203820  00000+0 -89137-2 0  9990
2 53624  53.2173 234.5837 0005351 333.1547  63.8258 15.75042720  1304
STARLINK-4603           
1 53625U 22104AP  22250.91667824 -.01192647  00000+0 -88562-2 0  9996
2 53625  53.2173 234.5855 0001308  40.6767 355.1902 15.75005995  1303
STARLINK-4554           
1 53626U 22104AQ  22250.91667824 -.01190968  00000+0 -88113-2 0  9993
2 53626  53.2173 234.5804 0001201  49.6513 348.9901 15.75086459  1301
STARLINK-4595           
1 53627U 22104AR  22250.91667824 -.01191893  00000+0 -88312-2 0  9993
2 53627  53.2173 234.5822 0001218  50.3781 347.1532 15.75054942  1309
STARLINK-4600           
1 53628U 22104AS  22250.91667824 -.01190756  00000+0 -87957-2 0  9995
2 53628  53.2173 234.5782 0001148  49.1563 350.5822 15.75122673  1308
STARLINK-4602           
1 53629U 22104AT  22250.91667824 -.01191545  00000+0 -88218-2 0  9994
2 53629  53.2173 234.5811 0001321  43.4060 354.6810 15.75070559  1301
STARLINK-4598           
1 53630U 22104AU  22250.91667824 -.01190901  00000+0 -87921-2 0  9991
2 53630  53.2173 234.5772 0001040  60.0193 340.2797 15.75136178  1304
STARLINK-4599           
1 53631U 22104AV  22250.91667824 -.01190679  00000+0 -88028-2 0  9993
2 53631  53.2173 234.5789 0001104  55.3596 343.8340 15.75103151  1306
STARLINK-4606           
1 53632U 22104AW  22250.91667824 -.01191723  00000+0 -87846-2 0  9992
2 53632  53.2173 234.5750 0001223  46.4302 354.9677 15.75171300  1300
STARLINK-4593           
1 53633U 22104AX  22250.91667824 -.01191224  00000+0 -87880-2 0  9997
2 53633  53.2173 234.5756 0001222  42.3843 358.4693 15.75151823  1306
STARLINK-4592           
1 53634U 22104AY  22250.91667824 -.01191677  00000+0 -87712-2 0  9994
2 53634  53.2173 234.5728 0001323  41.0378   1.4631 15.75203864  1307
STARLINK-4587           
1 53635U 22104AZ  22250.91667824 -.01192148  00000+0 -87815-2 0  9993
2 53635  53.2173 234.5733 0001164  47.2428 354.7036 15.75189028  1309
STARLINK-4586           
1 53636U 22104BA  22250.91667824 -.01191089  00000+0 -87535-2 0  9996
2 53636  53.2173 234.5706 0001348  40.1858   3.4151 15.75236780  1307
STARLINK-4396           
1 53637U 22104BB  22250.91667824 -.01191522  00000+0 -87632-2 0  9997
2 53637  53.2173 234.5712 0001295  45.0749 357.9731 15.75221519  1304
STARLINK-4594           
1 53638U 22104BC  22250.91667824 -.01190894  00000+0 -87390-2 0  9990
2 53638  53.2173 234.5685 0001098  54.0292 350.6620 15.75272784  1305
STARLINK-4422           
1 53639U 22104BD  22250.91667824 -.01190893  00000+0 -87449-2 0  9995
2 53639  53.2173 234.5690 0001153  52.6029 351.5373 15.75256896  1307
STARLINK-4597           
1 53640U 22104BE  22250.91667824 -.01201561  00000+0 -88065-2 0  9997
2 53640  53.2173 234.5674 0003643 333.6170  71.6216 15.75295231  1308
STARLINK-4588           
1 53641U 22104BF  22250.91667824 -.01197845  00000+0 -87746-2 0  9992
2 53641  53.2173 234.5656 0003008 346.7456  59.0499 15.75306984  1307
FALCON 9 DEB            
1 53642U 22104BG  22250.51679127  .00744993  11505-4  72626-3 0  9996
2 53642  53.2179 235.6817 0059216  82.0134 278.7615 16.06982696  1675
FALCON 9 DEB            
1 53643U 22104BH  22250.51395665  .00733876  11513-4  71801-3 0  9990
2 53643  53.2149 235.6576 0055341  83.2112 277.5216 16.07392721  1678
FALCON 9 DEB            
1 53644U 22104BJ  22250.50651866  .00724287  11548-4  65658-3 0  9995
2 53644  53.2154 235.6002 0053186  77.4598 283.2379 16.08720310  1671
FALCON 9 DEB            
1 53645U 22104BK  22250.50525850  .00788567  11558-4  69554-3 0  9990
2 53645  53.2164 235.5919 0053071  78.7262 281.9731 16.09110807  1687
STARLINK-4622           
1 53648U 22105A   22250.91667824 -.00548706  00000+0 -47424-2 0  9994
2 53648  97.6555 128.5478 0001739 114.9215 117.4883 15.70711686  1301
STARLINK-4386           
1 53649U 22105B   22250.91667824 -.00571867  00000+0 -49510-2 0  9997
2 53649  97.6555 128.5479 0001914 117.6086 115.3784 15.70734991  1305
STARLINK-4380           
1 53650U 22105C   22250.91667824 -.00586081  00000+0 -50783-2 0  9997
2 53650  97.6555 128.5484 0002076 124.9566 108.6080 15.70753806  1307
STARLINK-4388           
1 53651U 22105D   22250.91667824 -.00605330  00000+0 -52518-2 0  9995
2 53651  97.6555 128.5484 0002096 134.7003  99.4383 15.70777309  1302
STARLINK-4374           
1 53652U 22105E   22250.91667824 -.00633601  00000+0 -55090-2 0  9996
2 53652  97.6555 128.5489 0001893 133.2577 101.4526 15.70806845  1303
STARLINK-4390           
1 53653U 22105F   22250.91667824 -.00654049  00000+0 -56948-2 0  9999
2 53653  97.6555 128.5490 0001680 126.9734 108.3082 15.70832598  1301
STARLINK-4420           
1 53654U 22105G   22250.91667824 -.00715791  00000+0 -62566-2 0  9995
2 53654  97.6556 128.5500 0002015 118.4979 118.4945 15.70911981  1309
STARLINK-4470           
1 53655U 22105H   22250.91667824 -.00666932  00000+0 -58110-2 0  9998
2 53655  97.6555 128.5493 0001747 121.0147 114.8421 15.70851946  1301
STARLINK-4466           
1 53656U 22105J   22250.91667824 -.00753130  00000+0 -65976-2 0  9994
2 53656  97.6556 128.5505 0001901 131.4692 106.6582 15.70966017  1302
STARLINK-4469           
1 53657U 22105K   22250.91667824 -.00694893  00000+0 -60664-2 0  9994
2 53657  97.6555 128.5496 0001884 118.8869 117.5381 15.70883549  1302
STARLINK-4452           
1 53658U 22105L   22250.91667824 -.00774173  00000+0 -67911-2 0  9997
2 53658  97.6556 128.5508 0001871 134.9775 103.7179 15.70994039  1308
STARLINK-4463           
1 53659U 22105M   22250.91667824 -.00728960  00000+0 -63758-2 0  9996
2 53659  97.6556 128.5502 0002133 131.0442 106.5207 15.70932951  1302
STARLINK-4473           
1 53660U 22105N   22250.91667824 -.00829909  00000+0 -73015-2 0  9990
2 53660  97.6556 128.5517 0002184 128.1638 112.2233 15.71080140  1308
STARLINK-4472           
1 53661U 22105P   22250.91667824 -.00787785  00000+0 -69156-2 0  9997
2 53661  97.6556 128.5510 0001667 117.7601 121.5044 15.71017121  1303
STARLINK-4357           
1 53662U 22105Q   22250.91667824 -.00888863  00000+0 -78469-2 0  9994
2 53662  97.6556 128.5525 0001979 137.7163 104.3560 15.71170766  1308
STARLINK-4457           
1 53663U 22105R   22250.91667824 -.00807677  00000+0 -70975-2 0  9993
2 53663  97.6556 128.5513 0001938 122.3878 117.4396 15.71047056  1301
STARLINK-4471           
1 53664U 22105S   22250.91667824 -.00909954  00000+0 -80424-2 0  9995
2 53664  97.6556 128.5528 0001788 128.1220 114.5049 15.71206351  1304
STARLINK-4334           
1 53665U 22105T   22250.91667824 -.00852820  00000+0 -75130-2 0  9993
2 53665  97.6556 128.5518 0002249 132.4519 108.4953 15.71113737  1307
STARLINK-4449           
1 53666U 22105U   22250.91667824 -.00965567  00000+0 -84185-2 0  9997
2 53666  97.6556 128.5533 0002136 127.3099 116.4333 15.71269379  1301
STARLINK-4406           
1 53667U 22105V   22250.91667824 -.00871499  00000+0 -76855-2 0  9993
2 53667  97.6556 128.5521 0002231 139.6739 101.8352 15.71143085  1306
STARLINK-4458           
1 53668U 22105W   22250.91667824 -.00985128  00000+0 -85945-2 0  9999
2 53668  97.6556 128.5536 0002221 129.7143 114.5866 15.71300960  1309
STARLINK-4464           
1 53669U 22105X   22250.91667824 -.00928501  00000+0 -82143-2 0  9999
2 53669  97.6556 128.5529 0001933 126.6788 116.5084 15.71235786  1309
STARLINK-4459           
1 53670U 22105Y   22250.91667824 -.01034386  00000+0 -90423-2 0  9991
2 53670  97.6556 128.5541 0002265 143.6974 101.7083 15.71373154  1307
STARLINK-4440           
1 53671U 22105Z   22250.91667824 -.01008943  00000+0 -88113-2 0  9995
2 53671  97.6556 128.5537 0002332 139.0749 105.7837 15.71333438  1309
STARLINK-4428           
1 53672U 22105AA  22250.91667824 -.01095347  00000+0 -95975-2 0  9994
2 53672  97.6556 128.5549 0002004 121.8336 125.2349 15.71470622  1302
STARLINK-4456           
1 53673U 22105AB  22250.91667824 -.01050828  00000+0 -91911-2 0  9996
2 53673  97.6556 128.5542 0002137 141.7508 104.2140 15.71401680  1309
STARLINK-4620           
1 53674U 22105AC  22250.91667824 -.01136185  00000+0 -99672-2 0  9990
2 53674  97.6556 128.5554 0002261 133.2278 114.9388 15.71540782  1300
STARLINK-4617           
1 53675U 22105AD  22250.91667824 -.01073681  00000+0 -93983-2 0  9991
2 53675  97.6556 128.5545 0002174 139.8793 106.6333 15.71438967  1307
STARLINK-4621           
1 53676U 22105AE  22250.91667824 -.01166960  00000+0 -10240-1 0  9999
2 53676  97.6556 128.5559 0002348 145.0470 104.2093 15.71609961  1308
STARLINK-4579           
1 53677U 22105AF  22250.91667824 -.01111898  00000+0 -97461-2 0  9991
2 53677  97.6556 128.5550 0002009 116.5815 131.0386 15.71502824  1303
STARLINK-4418           
1 53678U 22105AG  22250.91667824 -.01183975  00000+0 -10384-1 0  9995
2 53678  97.6556 128.5564 0001965 124.5192 125.8308 15.71669104  1306
STARLINK-4632           
1 53679U 22105AH  22250.91667824 -.01156103  00000+0 -10147-1 0  9996
2 53679  97.6556 128.5555 0002202 137.1640 111.5443 15.71579254  1308
